<?xml version="1.0" encoding="utf-8" ?>
<kml xmlns="http://www.opengis.net/kml/2.2">
<Document id="root_doc">
<Schema name="SR_dams" id="SR_dams">
	<SimpleField name="descriptio" type="string"></SimpleField>
	<SimpleField name="timestamp" type="string"></SimpleField>
	<SimpleField name="begin" type="string"></SimpleField>
	<SimpleField name="end" type="string"></SimpleField>
	<SimpleField name="altitudeMo" type="string"></SimpleField>
	<SimpleField name="tessellate" type="float"></SimpleField>
	<SimpleField name="extrude" type="float"></SimpleField>
	<SimpleField name="visibility" type="float"></SimpleField>
	<SimpleField name="drawOrder" type="float"></SimpleField>
	<SimpleField name="icon" type="string"></SimpleField>
</Schema>
<Folder><name>SR_dams</name>
  <Placemark>
	<name>Tyabenzi Dam</name>
	<Style><LineStyle><color>ff0000ff</color></LineStyle><PolyStyle><fill>0</fill></PolyStyle></Style>
	<ExtendedData><SchemaData schemaUrl="#SR_dams">
		<SimpleData name="tessellate">1</SimpleData>
		<SimpleData name="extrude">0</SimpleData>
		<SimpleData name="visibility">-1</SimpleData>
	</SchemaData></ExtendedData>
      <MultiGeometry><Polygon><outerBoundaryIs><LinearRing><coordinates>29.3029066123377,-19.5767835305653,0 29.3061953712653,-19.5771537760367,0 29.3090263124831,-19.5766732533501,0 29.3100433720385,-19.5749653616673,0 29.3111137529493,-19.5752083915681,0 29.3131305613468,-19.5741062407578,0 29.3127152932657,-19.5754803664475,0 29.3111404823197,-19.576682742689,0 29.3118988004021,-19.5779142780225,0 29.3134796778657,-19.5790112732106,0 29.3160043853105,-19.5764000868663,0 29.3149436181401,-19.5775848763194,0 29.3135840203359,-19.5790127676009,0 29.314003152346,-19.5797274178347,0 29.3160658181648,-19.5813879483168,0 29.3194562194746,-19.5815336791463,0 29.3203194772479,-19.5802622754042,0 29.3219707345751,-19.5803854612618,0 29.3235003373373,-19.5807622918788,0 29.3224321906072,-19.5816581763759,0 29.3213815746788,-19.5822355652825,0 29.3212342661766,-19.5832950640798,0 29.3219026264093,-19.5842270492634,0 29.3233398307331,-19.5858716958576,0 29.3259868871604,-19.5881762575571,0 29.3284627985624,-19.5904241324902,0 29.3291984319307,-19.5919027328421,0 29.3280896145553,-19.5913668144639,0 29.3267062990648,-19.5905063890377,0 29.3247381504377,-19.5892304254816,0 29.32431135191,-19.5881533796301,0 29.3221069842544,-19.5865312228172,0 29.3207440842324,-19.5854612379525,0 29.3185844219174,-19.5836028066257,0 29.3173666173843,-19.5835847250152,0 29.3155399788585,-19.5832468953955,0 29.3140108423625,-19.5824230021308,0 29.311426655123,-19.5808955798353,0 29.3093541738105,-19.580547004752,0 29.3073105447016,-19.5810307429153,0 29.3054710239613,-19.5812693004495,0 29.3038360733773,-19.5814839912726,0 29.3028750178927,-19.580997030731,0 29.3016764641652,-19.5815619359441,0 29.3002029776771,-19.5811906238534,0 29.299347146536,-19.5820014906361,0 29.2996981830825,-19.5836259608981,0 29.2998276711623,-19.5850973089335,0 29.3002667583085,-19.5867497383716,0 29.3012070579086,-19.5885842971812,0 29.3042650444172,-19.5901020892972,0 29.3065970034841,-19.5917920425288,0 29.3075826515608,-19.5922133802487,0 29.3085890981095,-19.5934290171392,0 29.3074479347506,-19.5936197417256,0 29.3061619701057,-19.5927997009935,0 29.3076950521256,-19.5949216623446,0 29.3073873423426,-19.5965766169654,0 29.3083013485579,-19.5983110378595,0 29.3086368250138,-19.5998171382762,0 29.3087885670091,-19.601389250834,0 29.3078937808868,-19.6017478530903,0 29.3078518757195,-19.6028333286851,0 29.3092375159558,-19.6037371168218,0 29.3092375159558,-19.6037371168218,0 29.3095928589393,-19.6036502732703,0 29.3099510490414,-19.6036511635831,0 29.3108741946492,-19.6048746935896,0 29.3124900120939,-19.6060065470949,0 29.3135606733945,-19.6077952360911,0 29.3133940405094,-19.608793446121,0 29.3128711621334,-19.6084609612808,0 29.3120744356902,-19.6075355295342,0 29.3108192669961,-19.6062548776671,0 29.3097266585761,-19.6051311009841,0 29.3087378045781,-19.6047812697944,0 29.3073891155766,-19.6044308162446,0 29.3059068360852,-19.6034532665424,0 29.3054631727242,-19.6020181827297,0 29.3060041677175,-19.6002882406252,0 29.3071841250864,-19.6001844726946,0 29.3073098598108,-19.5989661956115,0 29.3069871655731,-19.5980177095054,0 29.3061033424561,-19.5970665530608,0 29.3060334278095,-19.5957954833605,0 29.306538220589,-19.5946060321783,0 29.3058779947051,-19.5947018564509,0 29.3051771957501,-19.5940972217256,0 29.3040196992302,-19.5938913635882,0 29.3039035026666,-19.5949923162007,0 29.3043751810732,-19.5964620785702,0 29.3042610471401,-19.5989577359312,0 29.3041440287898,-19.6013628099591,0 29.3032901623591,-19.6032629813522,0 29.3026531144448,-19.6043182513391,0 29.3023542710837,-19.6050957116033,0 29.3032648000329,-19.6064846514691,0 29.3029718016421,-19.6083357814871,0 29.3026123187648,-19.6092431498719,0 29.3020293807043,-19.6104629147061,0 29.3008867684823,-19.6101349695765,0 29.2999414765582,-19.6101297824255,0 29.2991417953748,-19.6098816636014,0 29.3005736763037,-19.6095632599572,0 29.3018641465511,-19.6085799127982,0 29.3022447348231,-19.6069053899639,0 29.3013115465023,-19.6063025670447,0 29.3000359130344,-19.6059994774651,0 29.3006539212818,-19.6049983357857,0 29.3010787084762,-19.604347811667,0 29.3011392564583,-19.6041292254228,0 29.3013284694067,-19.6035429845283,0 29.3021668014459,-19.6028789353777,0 29.3027408885196,-19.6019061161894,0 29.3025343885954,-19.6004557639266,0 29.3021171308207,-19.6013744623977,0 29.3008627171401,-19.6003763808237,0 29.3011079736526,-19.5994451976873,0 29.3021276848247,-19.5986590439623,0 29.3018352398351,-19.5972234331076,0 29.3017111813119,-19.5958373359672,0 29.3009651874202,-19.5961629941737,0 29.3001794104115,-19.5960764518944,0 29.2990321945986,-19.5942417582307,0 29.2996557338846,-19.593485106158,0 29.3003181231544,-19.5930628347753,0 29.2993742017398,-19.592456772189,0 29.2982056227786,-19.5922794834762,0 29.2976641248267,-19.5929644660154,0 29.2968607128505,-19.5928755506437,0 29.2962682884109,-19.5923576264943,0 29.2956369963,-19.5929559976919,0 29.2962292329236,-19.5934697755665,0 29.2957138304944,-19.5948993837787,0 29.2941704556333,-19.5950587377286,0 29.2930659986766,-19.5957992073637,0 29.2912159350044,-19.5986962761638,0 29.2899971280979,-19.5999445638565,0 29.2899177130284,-19.598532646428,0 29.2908061279216,-19.5972574109845,0 29.2909686983331,-19.5955517328097,0 29.2922709609467,-19.5944745934111,0 29.293277777969,-19.5936337067487,0 29.293929519982,-19.5926938507925,0 29.2937584099846,-19.5914799547299,0 29.2934079598768,-19.5902473739428,0 29.2917123023898,-19.5902471723724,0 29.2919487143526,-19.5894440045974,0 29.292005364007,-19.5886304978516,0 29.291534711163,-19.5879017628302,0 29.291395369617,-19.5869804293433,0 29.2905401213732,-19.5855785905564,0 29.2908737857282,-19.5847277029887,0 29.2910097563148,-19.5837703288718,0 29.2924855589925,-19.5823107932715,0 29.2941464590516,-19.5820209442874,0 29.296511308282,-19.5804211090819,0 29.2991051689947,-19.5794419253195,0 29.3007854512962,-19.5777010286733,0 29.3014778345404,-19.5765661967327,0 29.3029066123377,-19.5767835305653,0</coordinates></LinearRing></outerBoundaryIs></Polygon></MultiGeometry>
  </Placemark>
  <Placemark>
	<name>Pdk16 Dam</name>
	<Style><LineStyle><color>ff0000ff</color></LineStyle><PolyStyle><fill>0</fill></PolyStyle></Style>
	<ExtendedData><SchemaData schemaUrl="#SR_dams">
		<SimpleData name="tessellate">1</SimpleData>
		<SimpleData name="extrude">0</SimpleData>
		<SimpleData name="visibility">-1</SimpleData>
	</SchemaData></ExtendedData>
      <MultiGeometry><Polygon><outerBoundaryIs><LinearRing><coordinates>29.3431196783511,-19.7020963249264,0 29.3411814172783,-19.7040740549497,0 29.3393400053594,-19.7044766247819,0 29.3385413805137,-19.7048154134085,0 29.3370594110037,-19.7048338387413,0 29.336970716571,-19.7058104445819,0 29.3361086724308,-19.7062168987152,0 29.3358264028829,-19.7065710423333,0 29.335634802059,-19.706985295267,0 29.3352244501015,-19.7073836828089,0 29.3346649988383,-19.7074426174864,0 29.3351419390073,-19.7070885393312,0 29.3354008380896,-19.7065912296981,0 29.3360299855505,-19.7060129573766,0 29.3364638662716,-19.7058314252168,0 29.3364791766448,-19.70529184995,0 29.3363642459186,-19.7046578242298,0 29.3367219379031,-19.7040776030884,0 29.3372668937708,-19.7034749000508,0 29.337556029897,-19.7028765018707,0 29.3378120233799,-19.7023418107195,0 29.3379957148892,-19.7017615960428,0 29.3383323875797,-19.700976553286,0 29.3388020558411,-19.7007564462568,0 29.338825675638,-19.7002196690577,0 29.3389650013865,-19.6997340359713,0 29.339063464038,-19.699471340112,0 29.339489060991,-19.6996350757282,0 29.3403300864557,-19.6999604989756,0 29.3409653791441,-19.7003843501763,0 29.3418513317421,-19.7009863881988,0 29.3424460840587,-19.7015112064199,0 29.342771690933,-19.7018233850772,0 29.3431196783511,-19.7020963249264,0</coordinates></LinearRing></outerBoundaryIs></Polygon></MultiGeometry>
  </Placemark>
  <Placemark>
	<name>Dam1</name>
	<Style><LineStyle><color>ff0000ff</color></LineStyle><PolyStyle><fill>0</fill></PolyStyle></Style>
	<ExtendedData><SchemaData schemaUrl="#SR_dams">
		<SimpleData name="tessellate">1</SimpleData>
		<SimpleData name="extrude">0</SimpleData>
		<SimpleData name="visibility">-1</SimpleData>
	</SchemaData></ExtendedData>
      <MultiGeometry><Polygon><outerBoundaryIs><LinearRing><coordinates>29.3572189656252,-19.7019365933505,0 29.3572802825024,-19.702782917142,0 29.3572093702417,-19.7034753919013,0 29.3569464992873,-19.7040534563235,0 29.3568486620939,-19.7036038641744,0 29.3565516975986,-19.7032765125983,0 29.3560895503542,-19.7032105731102,0 29.3555223199328,-19.7029490973826,0 29.3557119206954,-19.7026102513715,0 29.3565442594105,-19.7023044750269,0 29.3572189656252,-19.7019365933505,0</coordinates></LinearRing></outerBoundaryIs></Polygon></MultiGeometry>
  </Placemark>
  <Placemark>
	<name>Lily Dam</name>
	<Style><LineStyle><color>ff0000ff</color></LineStyle><PolyStyle><fill>0</fill></PolyStyle></Style>
	<ExtendedData><SchemaData schemaUrl="#SR_dams">
		<SimpleData name="tessellate">1</SimpleData>
		<SimpleData name="extrude">0</SimpleData>
		<SimpleData name="visibility">-1</SimpleData>
	</SchemaData></ExtendedData>
      <MultiGeometry><Polygon><outerBoundaryIs><LinearRing><coordinates>29.3832465067615,-19.7117348651611,0 29.3826269382684,-19.7125385054724,0 29.3819811935541,-19.7130808163092,0 29.3813498267156,-19.7136322412823,0 29.3808891803619,-19.7137246815114,0 29.3810678562707,-19.7135123182166,0 29.3812693698441,-19.7132941212853,0 29.3814932229488,-19.7130495151756,0 29.3816367641507,-19.7128022100984,0 29.3818281414912,-19.7125715021832,0 29.3817981761116,-19.7122503675856,0 29.3818750644597,-19.7118944831614,0 29.3820693819437,-19.7115741934742,0 29.3820570839967,-19.7111516500768,0 29.3823724868879,-19.7111165833634,0 29.3827731973118,-19.7113534537337,0 29.3832465067615,-19.7117348651611,0</coordinates></LinearRing></outerBoundaryIs></Polygon></MultiGeometry>
  </Placemark>
  <Placemark>
	<name>Dam2</name>
	<Style><LineStyle><color>ff0000ff</color></LineStyle><PolyStyle><fill>0</fill></PolyStyle></Style>
	<ExtendedData><SchemaData schemaUrl="#SR_dams">
		<SimpleData name="tessellate">1</SimpleData>
		<SimpleData name="extrude">0</SimpleData>
		<SimpleData name="visibility">-1</SimpleData>
	</SchemaData></ExtendedData>
      <MultiGeometry><Polygon><outerBoundaryIs><LinearRing><coordinates>29.3950021637244,-19.7193490818753,0 29.3947269681412,-19.7191603354369,0 29.3940383902382,-19.7191723113915,0 29.3936358629554,-19.7192152929826,0 29.3929155002453,-19.7193458533402,0 29.3922908377305,-19.7194320612023,0 29.3918125904096,-19.7193490643965,0 29.3921509910764,-19.7190757632127,0 29.3925874171662,-19.7187483465465,0 29.392601414542,-19.7187332041423,0 29.3930389012145,-19.7183915710147,0 29.3934773660045,-19.7180085515884,0 29.3942250790564,-19.7176629354021,0 29.3944327628887,-19.7178267046356,0 29.3948468562404,-19.718369721435,0 29.3950677360556,-19.7189400320421,0 29.3950021637244,-19.7193490818753,0</coordinates></LinearRing></outerBoundaryIs></Polygon></MultiGeometry>
  </Placemark>
  <Placemark>
	<name>school Dam</name>
	<Style><LineStyle><color>ff0000ff</color></LineStyle><PolyStyle><fill>0</fill></PolyStyle></Style>
	<ExtendedData><SchemaData schemaUrl="#SR_dams">
		<SimpleData name="tessellate">1</SimpleData>
		<SimpleData name="extrude">0</SimpleData>
		<SimpleData name="visibility">-1</SimpleData>
	</SchemaData></ExtendedData>
      <MultiGeometry><Polygon><outerBoundaryIs><LinearRing><coordinates>29.3261926748664,-19.6616927145214,0 29.3256169759438,-19.6618870803317,0 29.3251340648793,-19.6622363401861,0 29.3245576795987,-19.6624167334924,0 29.3242473887718,-19.6627146990715,0 29.3236624122148,-19.6627384936972,0 29.323305925127,-19.6626427930313,0 29.3235826828134,-19.6624258396594,0 29.323963552313,-19.6621468499544,0 29.3243972431518,-19.6615906738753,0 29.3247558054246,-19.6611711974169,0 29.3250720320093,-19.6608778156018,0 29.3252349955417,-19.6604568247859,0 29.3255438452987,-19.6606092163669,0 29.3259399925032,-19.6611476578564,0 29.3261926748664,-19.6616927145214,0</coordinates></LinearRing></outerBoundaryIs></Polygon></MultiGeometry>
  </Placemark>
  <Placemark>
	<name>Pdk19 dam</name>
	<Style><LineStyle><color>ff0000ff</color></LineStyle><PolyStyle><fill>0</fill></PolyStyle></Style>
	<ExtendedData><SchemaData schemaUrl="#SR_dams">
		<SimpleData name="tessellate">1</SimpleData>
		<SimpleData name="extrude">0</SimpleData>
		<SimpleData name="visibility">-1</SimpleData>
	</SchemaData></ExtendedData>
      <MultiGeometry><Polygon><outerBoundaryIs><LinearRing><coordinates>29.2440802631661,-19.6463168111878,0 29.243472220166,-19.6455876878121,0 29.2432604422192,-19.6454856129083,0 29.2428132162438,-19.6453248359697,0 29.2424127962155,-19.6451654087173,0 29.2419463243616,-19.6449503967066,0 29.2422241417086,-19.6447620572817,0 29.2427719854208,-19.6448977297841,0 29.2433082968998,-19.6449827352432,0 29.2436879662713,-19.6449031683652,0 29.2442270470289,-19.6447375777522,0 29.2447044621144,-19.6447684022604,0 29.2445661232754,-19.6450089536513,0 29.2445206543279,-19.6455097701646,0 29.2441817895164,-19.645943084873,0 29.2440802631661,-19.6463168111878,0</coordinates></LinearRing></outerBoundaryIs></Polygon></MultiGeometry>
  </Placemark>
  <Placemark>
	<name>dam3</name>
	<Style><LineStyle><color>ff0000ff</color></LineStyle><PolyStyle><fill>0</fill></PolyStyle></Style>
	<ExtendedData><SchemaData schemaUrl="#SR_dams">
		<SimpleData name="tessellate">1</SimpleData>
		<SimpleData name="extrude">0</SimpleData>
		<SimpleData name="visibility">-1</SimpleData>
	</SchemaData></ExtendedData>
      <MultiGeometry><Polygon><outerBoundaryIs><LinearRing><coordinates>29.2592813575596,-19.6098066032467,0 29.2598559908726,-19.609407531133,0 29.2600404522147,-19.6098347564669,0 29.2602304244011,-19.610381846278,0 29.2602833615675,-19.6107001842748,0 29.2599122729971,-19.610859587379,0 29.2595170384468,-19.6107332796118,0 29.2589074460377,-19.6108530889189,0 29.258575530932,-19.6107898753589,0 29.2587463990236,-19.610191503698,0 29.2592813575596,-19.6098066032467,0</coordinates></LinearRing></outerBoundaryIs></Polygon></MultiGeometry>
  </Placemark>
  <Placemark>
	<name>dam4</name>
	<Style><LineStyle><color>ff0000ff</color></LineStyle><PolyStyle><fill>0</fill></PolyStyle></Style>
	<ExtendedData><SchemaData schemaUrl="#SR_dams">
		<SimpleData name="tessellate">1</SimpleData>
		<SimpleData name="extrude">0</SimpleData>
		<SimpleData name="visibility">-1</SimpleData>
	</SchemaData></ExtendedData>
      <MultiGeometry><Polygon><outerBoundaryIs><LinearRing><coordinates>29.221229102071,-19.6211807216784,0 29.2205299433433,-19.6213898729033,0 29.2202456409775,-19.6213698202718,0 29.219699772796,-19.6214966636896,0 29.2195374082025,-19.6214219555273,0 29.2191619234964,-19.6213503247245,0 29.2196961798312,-19.620930320217,0 29.2200700443307,-19.6206341572852,0 29.2204722008691,-19.6201467567702,0 29.2206584502329,-19.6204284509318,0 29.2208584383947,-19.6207428119783,0 29.221229102071,-19.6211807216784,0</coordinates></LinearRing></outerBoundaryIs></Polygon></MultiGeometry>
  </Placemark>
  <Placemark>
	<name>dam5</name>
	<Style><LineStyle><color>ff0000ff</color></LineStyle><PolyStyle><fill>0</fill></PolyStyle></Style>
	<ExtendedData><SchemaData schemaUrl="#SR_dams">
		<SimpleData name="tessellate">1</SimpleData>
		<SimpleData name="extrude">0</SimpleData>
		<SimpleData name="visibility">-1</SimpleData>
	</SchemaData></ExtendedData>
      <MultiGeometry><Polygon><outerBoundaryIs><LinearRing><coordinates>29.1896736082897,-19.6622113995238,0 29.1893590080077,-19.6623515324399,0 29.1888971719436,-19.6624109740206,0 29.189058396587,-19.6620899264602,0 29.189085821788,-19.6617810115601,0 29.1890767682807,-19.6613570356546,0 29.189252028062,-19.6615070665649,0 29.1894552689289,-19.6618847387046,0 29.1896736082897,-19.6622113995238,0</coordinates></LinearRing></outerBoundaryIs></Polygon></MultiGeometry>
  </Placemark>
  <Placemark>
	<name>dam6</name>
	<Style><LineStyle><color>ff0000ff</color></LineStyle><PolyStyle><fill>0</fill></PolyStyle></Style>
	<ExtendedData><SchemaData schemaUrl="#SR_dams">
		<SimpleData name="tessellate">1</SimpleData>
		<SimpleData name="extrude">0</SimpleData>
		<SimpleData name="visibility">-1</SimpleData>
	</SchemaData></ExtendedData>
      <MultiGeometry><Polygon><outerBoundaryIs><LinearRing><coordinates>29.081074473729,-19.6905499325877,0 29.0816221663081,-19.6903895093886,0 29.0817438111242,-19.6907390608789,0 29.0818797917377,-19.6912975066939,0 29.0818401048613,-19.6915706209126,0 29.081470670748,-19.6915100383842,0 29.0810881948071,-19.6913275728579,0 29.0807020999247,-19.6911433791703,0 29.0802506437415,-19.6909572412476,0 29.0807896378516,-19.6908028592973,0 29.081074473729,-19.6905499325877,0</coordinates></LinearRing></outerBoundaryIs></Polygon></MultiGeometry>
  </Placemark>
  <Placemark>
	<name>dam7</name>
	<Style><LineStyle><color>ff0000ff</color></LineStyle><PolyStyle><fill>0</fill></PolyStyle></Style>
	<ExtendedData><SchemaData schemaUrl="#SR_dams">
		<SimpleData name="tessellate">1</SimpleData>
		<SimpleData name="extrude">0</SimpleData>
		<SimpleData name="visibility">-1</SimpleData>
	</SchemaData></ExtendedData>
      <MultiGeometry><Polygon><outerBoundaryIs><LinearRing><coordinates>29.1264629346305,-19.6445533015755,0 29.1268431868555,-19.6448524003013,0 29.1272044943053,-19.644969255526,0 29.1276121233915,-19.645217391614,0 29.1271762034514,-19.6452311009518,0 29.126769098588,-19.6453330642124,0 29.1263727136423,-19.6452843378799,0 29.1261234648374,-19.6451940857128,0 29.1262499681192,-19.6449102023118,0 29.1264629346305,-19.6445533015755,0</coordinates></LinearRing></outerBoundaryIs></Polygon></MultiGeometry>
  </Placemark>
  <Placemark>
	<name>dam8</name>
	<Style><LineStyle><color>ff0000ff</color></LineStyle><PolyStyle><fill>0</fill></PolyStyle></Style>
	<ExtendedData><SchemaData schemaUrl="#SR_dams">
		<SimpleData name="tessellate">1</SimpleData>
		<SimpleData name="extrude">0</SimpleData>
		<SimpleData name="visibility">-1</SimpleData>
	</SchemaData></ExtendedData>
      <MultiGeometry><Polygon><outerBoundaryIs><LinearRing><coordinates>29.1126970310559,-19.6411687989315,0 29.1125143659601,-19.6415553199508,0 29.1122906799733,-19.6414404839924,0 29.1118371097227,-19.6411847653372,0 29.1114387126712,-19.640782878892,0 29.1116844570595,-19.6404993901321,0 29.111938321748,-19.6404291434266,0 29.1119568816402,-19.6401115450386,0 29.1118779821864,-19.6396307388604,0 29.1120912882044,-19.6394789671693,0 29.1122377504869,-19.6399402864828,0 29.1123562366545,-19.6402626822874,0 29.1124724392292,-19.6404811828609,0 29.1127035150656,-19.6405554185359,0 29.1128404181344,-19.6406761875418,0 29.1130970985704,-19.6405347847427,0 29.1128375101275,-19.6408658231353,0 29.1126970310559,-19.6411687989315,0</coordinates></LinearRing></outerBoundaryIs></Polygon></MultiGeometry>
  </Placemark>
  <Placemark>
	<name>dam9</name>
	<Style><LineStyle><color>ff0000ff</color></LineStyle><PolyStyle><fill>0</fill></PolyStyle></Style>
	<ExtendedData><SchemaData schemaUrl="#SR_dams">
		<SimpleData name="tessellate">1</SimpleData>
		<SimpleData name="extrude">0</SimpleData>
		<SimpleData name="visibility">-1</SimpleData>
	</SchemaData></ExtendedData>
      <MultiGeometry><Polygon><outerBoundaryIs><LinearRing><coordinates>29.1206443138944,-19.607618110836,0 29.1204110377196,-19.6078154368294,0 29.1202565636958,-19.6074110531867,0 29.119972495901,-19.6067875811944,0 29.1201000369771,-19.6066244820467,0 29.1203558608748,-19.6066992112051,0 29.1205097682441,-19.6065590825517,0 29.1205384766731,-19.6061484784052,0 29.1207388824763,-19.6059011174959,0 29.1210347749978,-19.6055686681856,0 29.121318817062,-19.6055422193784,0 29.1215317587064,-19.6054639104178,0 29.1217936847712,-19.6054111871249,0 29.1219611752591,-19.6053322273121,0 29.1222939901649,-19.6054644256278,0 29.1225580877213,-19.60538756747,0 29.1229559091294,-19.605597644335,0 29.1233245874829,-19.6058046339125,0 29.1234571519211,-19.60595721121,0 29.1228517117728,-19.6058528509587,0 29.1224947574039,-19.6060273051253,0 29.1219340100304,-19.6059997152725,0 29.1216541493171,-19.6061498987046,0 29.1215172731751,-19.6064205512906,0 29.1212223827342,-19.6066383693582,0 29.1210659486979,-19.6067795912629,0 29.1211846388195,-19.6070140938254,0 29.1209883181987,-19.6072632383299,0 29.1207235394336,-19.6073725160755,0 29.1206443138944,-19.607618110836,0</coordinates></LinearRing></outerBoundaryIs></Polygon></MultiGeometry>
  </Placemark>
  <Placemark>
	<name>dam10</name>
	<Style><LineStyle><color>ff0000ff</color></LineStyle><PolyStyle><fill>0</fill></PolyStyle></Style>
	<ExtendedData><SchemaData schemaUrl="#SR_dams">
		<SimpleData name="tessellate">1</SimpleData>
		<SimpleData name="extrude">0</SimpleData>
		<SimpleData name="visibility">-1</SimpleData>
	</SchemaData></ExtendedData>
      <MultiGeometry><Polygon><outerBoundaryIs><LinearRing><coordinates>29.16137453768,-19.6153323695097,0 29.1611930442093,-19.6156688894519,0 29.1612272294316,-19.6158523346792,0 29.1613293806384,-19.616033024823,0 29.161207762255,-19.6160145131838,0 29.1610500999716,-19.6159784511543,0 29.1610165523808,-19.6158156766281,0 29.1608975030107,-19.615669001551,0 29.1607984282852,-19.6155577024071,0 29.1606413242285,-19.6154075749121,0 29.160506592245,-19.6153124530698,0 29.1604742548541,-19.6151962798672,0 29.1609480723661,-19.6153119578324,0 29.16137453768,-19.6153323695097,0</coordinates></LinearRing></outerBoundaryIs></Polygon></MultiGeometry>
  </Placemark>
  <Placemark>
	<name>dam11</name>
	<Style><LineStyle><color>ff0000ff</color></LineStyle><PolyStyle><fill>0</fill></PolyStyle></Style>
	<ExtendedData><SchemaData schemaUrl="#SR_dams">
		<SimpleData name="tessellate">1</SimpleData>
		<SimpleData name="extrude">0</SimpleData>
		<SimpleData name="visibility">-1</SimpleData>
	</SchemaData></ExtendedData>
      <MultiGeometry><Polygon><outerBoundaryIs><LinearRing><coordinates>29.1909995320696,-19.6190738354993,0 29.1911202811818,-19.61883142482,0 29.1912279145388,-19.6184312782504,0 29.1910169467838,-19.6183987240295,0 29.1908477731413,-19.6182084234926,0 29.1909609720405,-19.6178590272228,0 29.1912175788012,-19.6180207290419,0 29.1914211463624,-19.6182757913274,0 29.1918148444892,-19.6183688486983,0 29.1919518832716,-19.618614692664,0 29.1914133503488,-19.618832241855,0 29.1909995320696,-19.6190738354993,0</coordinates></LinearRing></outerBoundaryIs></Polygon></MultiGeometry>
  </Placemark>
  <Placemark>
	<name>dam12</name>
	<Style><LineStyle><color>ff0000ff</color></LineStyle><PolyStyle><fill>0</fill></PolyStyle></Style>
	<ExtendedData><SchemaData schemaUrl="#SR_dams">
		<SimpleData name="tessellate">1</SimpleData>
		<SimpleData name="extrude">0</SimpleData>
		<SimpleData name="visibility">-1</SimpleData>
	</SchemaData></ExtendedData>
      <MultiGeometry><Polygon><outerBoundaryIs><LinearRing><coordinates>29.1991250905165,-19.6139204086379,0 29.1993638050228,-19.6141116303403,0 29.1991024749324,-19.6142507170456,0 29.1987162695378,-19.6144506732887,0 29.1985715863306,-19.6145312668256,0 29.198448298765,-19.6143906303354,0 29.198394556282,-19.614186554618,0 29.1984360066233,-19.613979456306,0 29.1983302919853,-19.6138541982306,0 29.1981650668232,-19.6137268169492,0 29.1983683272927,-19.6135979691239,0 29.1986697154979,-19.6137286687848,0 29.1988715789339,-19.6138746799378,0 29.1991250905165,-19.6139204086379,0</coordinates></LinearRing></outerBoundaryIs></Polygon></MultiGeometry>
  </Placemark>
  <Placemark>
	<name>dam13</name>
	<Style><LineStyle><color>ff0000ff</color></LineStyle><PolyStyle><fill>0</fill></PolyStyle></Style>
	<ExtendedData><SchemaData schemaUrl="#SR_dams">
		<SimpleData name="tessellate">1</SimpleData>
		<SimpleData name="extrude">0</SimpleData>
		<SimpleData name="visibility">-1</SimpleData>
	</SchemaData></ExtendedData>
      <MultiGeometry><Polygon><outerBoundaryIs><LinearRing><coordinates>29.200991749466,-19.6066684083218,0 29.2014578926881,-19.6066706203146,0 29.2013418078181,-19.6068855807741,0 29.2010884383431,-19.6071937331331,0 29.2009159077605,-19.6073837517339,0 29.2006870153968,-19.6073460968368,0 29.2004868475373,-19.6071748821758,0 29.2002974358015,-19.6069235180062,0 29.2000613157171,-19.6066662599402,0 29.1997590189642,-19.6064243079663,0 29.2001317348758,-19.6065261998876,0 29.2006316161965,-19.6066668228145,0 29.200991749466,-19.6066684083218,0</coordinates></LinearRing></outerBoundaryIs></Polygon></MultiGeometry>
  </Placemark>
  <Placemark>
	<name>dam14</name>
	<Style><LineStyle><color>ff0000ff</color></LineStyle><PolyStyle><fill>0</fill></PolyStyle></Style>
	<ExtendedData><SchemaData schemaUrl="#SR_dams">
		<SimpleData name="tessellate">1</SimpleData>
		<SimpleData name="extrude">0</SimpleData>
		<SimpleData name="visibility">-1</SimpleData>
	</SchemaData></ExtendedData>
      <MultiGeometry><Polygon><outerBoundaryIs><LinearRing><coordinates>29.2073325229115,-19.5924293043466,0 29.2065041128899,-19.5920302867408,0 29.2069784951971,-19.5920283958453,0 29.2074357035263,-19.5916987934649,0 29.2077902031694,-19.5914024386584,0 29.2080779623508,-19.5911787706725,0 29.2088267130689,-19.5912926335499,0 29.2092400369242,-19.5915174186113,0 29.2090983722878,-19.5918159609361,0 29.208588970996,-19.5919978655061,0 29.2081886926641,-19.5920694434565,0 29.2075703854931,-19.5921397257698,0 29.2073325229115,-19.5924293043466,0</coordinates></LinearRing></outerBoundaryIs></Polygon></MultiGeometry>
  </Placemark>
  <Placemark>
	<name>dam15</name>
	<Style><LineStyle><color>ff0000ff</color></LineStyle><PolyStyle><fill>0</fill></PolyStyle></Style>
	<ExtendedData><SchemaData schemaUrl="#SR_dams">
		<SimpleData name="tessellate">1</SimpleData>
		<SimpleData name="extrude">0</SimpleData>
		<SimpleData name="visibility">-1</SimpleData>
	</SchemaData></ExtendedData>
      <MultiGeometry><Polygon><outerBoundaryIs><LinearRing><coordinates>29.217775974412,-19.5335849293338,0 29.2173304745801,-19.5341490086365,0 29.2171543886007,-19.5345485894289,0 29.2171621062094,-19.5350005293033,0 29.2171221593982,-19.5355830649813,0 29.2168552537453,-19.5358621828961,0 29.2165164875502,-19.5366558161865,0 29.2165967449421,-19.5362231080814,0 29.2164121067971,-19.5358924997983,0 29.216420252787,-19.5354952236682,0 29.216641980554,-19.5354063762552,0 29.21660980791,-19.5352029601185,0 29.2164262100468,-19.5350282244093,0 29.2161157692771,-19.5343949848543,0 29.2161262184647,-19.5340822934686,0 29.2160298237677,-19.53373256599,0 29.2165558395982,-19.5336642776229,0 29.2172981536325,-19.5336393017613,0 29.217775974412,-19.5335849293338,0</coordinates></LinearRing></outerBoundaryIs></Polygon></MultiGeometry>
  </Placemark>
  <Placemark>
	<name>dam16</name>
	<Style><LineStyle><color>ff0000ff</color></LineStyle><PolyStyle><fill>0</fill></PolyStyle></Style>
	<ExtendedData><SchemaData schemaUrl="#SR_dams">
		<SimpleData name="tessellate">1</SimpleData>
		<SimpleData name="extrude">0</SimpleData>
		<SimpleData name="visibility">-1</SimpleData>
	</SchemaData></ExtendedData>
      <MultiGeometry><Polygon><outerBoundaryIs><LinearRing><coordinates>29.1718859689254,-19.5283959308992,0 29.1724520116182,-19.5289598881335,0 29.1728029185188,-19.529384936725,0 29.1730536594271,-19.5298559472318,0 29.1732998398432,-19.5303957368039,0 29.1734218915332,-19.5310693532082,0 29.1734326839982,-19.5311780114681,0 29.1734380428265,-19.5312319640646,0 29.1736868116176,-19.5319691751725,0 29.1735797828547,-19.5322553364183,0 29.1732458651863,-19.5317271201554,0 29.1731345293971,-19.531214545644,0 29.1729455179138,-19.5306632731599,0 29.1729161881634,-19.5305688624474,0 29.1726015597214,-19.5298709309032,0 29.1722511325029,-19.5294424490733,0 29.1720051094598,-19.5289985634889,0 29.1716401341328,-19.5289456939327,0 29.1717435039365,-19.5286271700955,0 29.1718859689254,-19.5283959308992,0</coordinates></LinearRing></outerBoundaryIs></Polygon></MultiGeometry>
  </Placemark>
  <Placemark>
	<name>dam17</name>
	<Style><LineStyle><color>ff0000ff</color></LineStyle><PolyStyle><fill>0</fill></PolyStyle></Style>
	<ExtendedData><SchemaData schemaUrl="#SR_dams">
		<SimpleData name="tessellate">1</SimpleData>
		<SimpleData name="extrude">0</SimpleData>
		<SimpleData name="visibility">-1</SimpleData>
	</SchemaData></ExtendedData>
      <MultiGeometry><Polygon><outerBoundaryIs><LinearRing><coordinates>29.1592105941193,-19.5024800121568,0 29.1597414520819,-19.5023801155024,0 29.1595736032388,-19.5028247997502,0 29.15945596942,-19.5034338693325,0 29.159340222523,-19.5038875363019,0 29.1590411737999,-19.5038342636529,0 29.1588316869939,-19.5034359120431,0 29.1585619947817,-19.5033599699599,0 29.158267101088,-19.5032253770571,0 29.1580681930494,-19.5031283157329,0 29.1580646540524,-19.5028702502728,0 29.1581646043343,-19.5024407452472,0 29.1581574071331,-19.5021049479242,0 29.1587541322208,-19.5024183277911,0 29.1592105941193,-19.5024800121568,0</coordinates></LinearRing></outerBoundaryIs></Polygon></MultiGeometry>
  </Placemark>
  <Placemark>
	<name>dam19</name>
	<Style><LineStyle><color>ff0000ff</color></LineStyle><PolyStyle><fill>0</fill></PolyStyle></Style>
	<ExtendedData><SchemaData schemaUrl="#SR_dams">
		<SimpleData name="tessellate">1</SimpleData>
		<SimpleData name="extrude">0</SimpleData>
		<SimpleData name="visibility">-1</SimpleData>
	</SchemaData></ExtendedData>
      <MultiGeometry><Polygon><outerBoundaryIs><LinearRing><coordinates>29.2366416176963,-19.5968455689373,0 29.2359466273063,-19.596643029865,0 29.2348961152692,-19.5962764791904,0 29.2349400581882,-19.5962531020941,0 29.2352721574562,-19.5960872594243,0 29.2356914675617,-19.5956533123437,0 29.2361225183527,-19.5951560174567,0 29.2362884371207,-19.5952557816669,0 29.236481136617,-19.5960835870524,0 29.2366416176963,-19.5968455689373,0</coordinates></LinearRing></outerBoundaryIs></Polygon></MultiGeometry>
  </Placemark>
  <Placemark>
	<name>dam18</name>
	<Style><LineStyle><color>ff0000ff</color></LineStyle><PolyStyle><fill>0</fill></PolyStyle></Style>
	<ExtendedData><SchemaData schemaUrl="#SR_dams">
		<SimpleData name="tessellate">1</SimpleData>
		<SimpleData name="extrude">0</SimpleData>
		<SimpleData name="visibility">-1</SimpleData>
	</SchemaData></ExtendedData>
      <MultiGeometry><Polygon><outerBoundaryIs><LinearRing><coordinates>29.2961461446045,-19.6278418708641,0 29.296619314482,-19.6275072727325,0 29.2967508127971,-19.6278248981726,0 29.2968179971863,-19.6283227999898,0 29.2966834718383,-19.6286545849438,0 29.2963769454642,-19.6285629952035,0 29.2960347542371,-19.6283401670878,0 29.2958087781669,-19.6281892000965,0 29.2955448988207,-19.6280557034962,0 29.2961461446045,-19.6278418708641,0</coordinates></LinearRing></outerBoundaryIs></Polygon></MultiGeometry>
  </Placemark>
  <Placemark>
	<name>dam20</name>
	<Style><LineStyle><color>ff0000ff</color></LineStyle><PolyStyle><fill>0</fill></PolyStyle></Style>
	<ExtendedData><SchemaData schemaUrl="#SR_dams">
		<SimpleData name="tessellate">1</SimpleData>
		<SimpleData name="extrude">0</SimpleData>
		<SimpleData name="visibility">-1</SimpleData>
	</SchemaData></ExtendedData>
      <MultiGeometry><Polygon><outerBoundaryIs><LinearRing><coordinates>29.4151316565236,-19.7520952654194,0 29.4153747422854,-19.751858971539,0 29.416177641804,-19.75203302016,0 29.417625075556,-19.7523150376823,0 29.4189794156979,-19.7527600565696,0 29.4197202458525,-19.7531631077154,0 29.420155579214,-19.7538126661561,0 29.4204324602165,-19.7547122652914,0 29.4206308346502,-19.7554748881758,0 29.4211657682422,-19.7562893316165,0 29.4216836052711,-19.7570391597608,0 29.4213671016397,-19.7573444268339,0 29.4213230327481,-19.7567190601033,0 29.4208888476739,-19.7563304667041,0 29.4203423657483,-19.7560132306773,0 29.4199635393229,-19.7556042623853,0 29.4199311380977,-19.7551007248892,0 29.4200064401691,-19.7544106893316,0 29.4197918887709,-19.7540191051368,0 29.4194642621278,-19.7535814588905,0 29.4190586989712,-19.7532343224649,0 29.4182846345906,-19.7531747223309,0 29.4175046806128,-19.7530291103012,0 29.4166825298535,-19.7528817309954,0 29.4161598934307,-19.7528308602243,0 29.415603079587,-19.752827047595,0 29.4151667774496,-19.7529186732957,0 29.4151772907741,-19.7526376034987,0 29.4151316565236,-19.7520952654194,0</coordinates></LinearRing></outerBoundaryIs></Polygon></MultiGeometry>
  </Placemark>
  <Placemark>
	<name>68 Dam</name>
	<Style><LineStyle><color>ff0000ff</color></LineStyle><PolyStyle><fill>0</fill></PolyStyle></Style>
      <MultiGeometry><Polygon><outerBoundaryIs><LinearRing><coordinates>29.2271654255023,-19.6315129286963,0 29.2272929734824,-19.632027787762,0 29.2273294157625,-19.6326456164624,0 29.2275298483027,-19.6329373680781,0 29.2277120597029,-19.63321195735,0 29.2274387426026,-19.6330746627728,0 29.2270743198022,-19.6330060154401,0 29.2268556661219,-19.6328000732662,0 29.2266916758617,-19.6323710262223,0 29.2265276856015,-19.6320449497025,0 29.2271654255023,-19.6315129286963,0</coordinates></LinearRing></outerBoundaryIs></Polygon></MultiGeometry>
  </Placemark>
</Folder>
</Document></kml>
