<?xml version="1.0" encoding="utf-8" ?>
<kml xmlns="http://www.opengis.net/kml/2.2">
<Document id="root_doc">
<Schema name="SR_water_tanks" id="SR_water_tanks">
	<SimpleField name="descriptio" type="string"></SimpleField>
	<SimpleField name="timestamp" type="string"></SimpleField>
	<SimpleField name="begin" type="string"></SimpleField>
	<SimpleField name="end" type="string"></SimpleField>
	<SimpleField name="altitudeMo" type="string"></SimpleField>
	<SimpleField name="tessellate" type="float"></SimpleField>
	<SimpleField name="extrude" type="float"></SimpleField>
	<SimpleField name="visibility" type="float"></SimpleField>
	<SimpleField name="drawOrder" type="float"></SimpleField>
	<SimpleField name="icon" type="string"></SimpleField>
</Schema>
<Folder><name>SR_water_tanks</name>
  <Placemark>
	<name>Water_Tank_Workers_Village_JB</name>
	<ExtendedData><SchemaData schemaUrl="#SR_water_tanks">
		<SimpleData name="tessellate">-1</SimpleData>
		<SimpleData name="extrude">0</SimpleData>
		<SimpleData name="visibility">-1</SimpleData>
	</SchemaData></ExtendedData>
      <Point><coordinates>29.1811114657134,-19.5278293023358</coordinates></Point>
  </Placemark>
  <Placemark>
	<name>Water_Tank_Pdk 115_JB</name>
	<ExtendedData><SchemaData schemaUrl="#SR_water_tanks">
		<SimpleData name="tessellate">-1</SimpleData>
		<SimpleData name="extrude">0</SimpleData>
		<SimpleData name="visibility">-1</SimpleData>
	</SchemaData></ExtendedData>
      <Point><coordinates>29.116703512309,-19.523239763256</coordinates></Point>
  </Placemark>
  <Placemark>
	<name>Water_Tank_Pdk_118_Dip_JB</name>
	<ExtendedData><SchemaData schemaUrl="#SR_water_tanks">
		<SimpleData name="tessellate">-1</SimpleData>
		<SimpleData name="extrude">0</SimpleData>
		<SimpleData name="visibility">-1</SimpleData>
	</SchemaData></ExtendedData>
      <Point><coordinates>29.1300133347528,-19.5080401288996</coordinates></Point>
  </Placemark>
  <Placemark>
	<name>Water_Tank_Pdk_109_JB</name>
	<ExtendedData><SchemaData schemaUrl="#SR_water_tanks">
		<SimpleData name="tessellate">-1</SimpleData>
		<SimpleData name="extrude">0</SimpleData>
		<SimpleData name="visibility">-1</SimpleData>
	</SchemaData></ExtendedData>
      <Point><coordinates>29.1920229473056,-19.5384572562829</coordinates></Point>
  </Placemark>
  <Placemark>
	<name>Water_Tank_Pgk_108_JB</name>
	<ExtendedData><SchemaData schemaUrl="#SR_water_tanks">
		<SimpleData name="tessellate">-1</SimpleData>
		<SimpleData name="extrude">0</SimpleData>
		<SimpleData name="visibility">-1</SimpleData>
	</SchemaData></ExtendedData>
      <Point><coordinates>29.2169546867858,-19.5581456486061</coordinates></Point>
  </Placemark>
  <Placemark>
	<name>Water_Tank_Gazini_Dip_JB</name>
	<ExtendedData><SchemaData schemaUrl="#SR_water_tanks">
		<SimpleData name="tessellate">-1</SimpleData>
		<SimpleData name="extrude">0</SimpleData>
		<SimpleData name="visibility">-1</SimpleData>
	</SchemaData></ExtendedData>
      <Point><coordinates>29.2297137195867,-19.550795939471</coordinates></Point>
  </Placemark>
  <Placemark>
	<name>Water_Tank_Pdk_106_JB</name>
	<ExtendedData><SchemaData schemaUrl="#SR_water_tanks">
		<SimpleData name="tessellate">-1</SimpleData>
		<SimpleData name="extrude">0</SimpleData>
		<SimpleData name="visibility">-1</SimpleData>
	</SchemaData></ExtendedData>
      <Point><coordinates>29.2347090252892,-19.5242169343778</coordinates></Point>
  </Placemark>
  <Placemark>
	<name>Water_tank_Pdk_95_JB</name>
	<ExtendedData><SchemaData schemaUrl="#SR_water_tanks">
		<SimpleData name="tessellate">-1</SimpleData>
		<SimpleData name="extrude">0</SimpleData>
		<SimpleData name="visibility">-1</SimpleData>
	</SchemaData></ExtendedData>
      <Point><coordinates>29.2340081150089,-19.5834547448891</coordinates></Point>
  </Placemark>
  <Placemark>
	<name>Water_Tank_Pdk_22_SR</name>
	<ExtendedData><SchemaData schemaUrl="#SR_water_tanks">
		<SimpleData name="tessellate">-1</SimpleData>
		<SimpleData name="extrude">0</SimpleData>
		<SimpleData name="visibility">-1</SimpleData>
	</SchemaData></ExtendedData>
      <Point><coordinates>29.2521330742321,-19.5967119065069</coordinates></Point>
  </Placemark>
  <Placemark>
	<name>Water_Tank_Pdk_20_SR</name>
	<ExtendedData><SchemaData schemaUrl="#SR_water_tanks">
		<SimpleData name="tessellate">-1</SimpleData>
		<SimpleData name="extrude">0</SimpleData>
		<SimpleData name="visibility">-1</SimpleData>
	</SchemaData></ExtendedData>
      <Point><coordinates>29.2402574386834,-19.6171235513406</coordinates></Point>
  </Placemark>
  <Placemark>
	<name>Water_Tank_Pdk_63_SR</name>
	<ExtendedData><SchemaData schemaUrl="#SR_water_tanks">
		<SimpleData name="tessellate">-1</SimpleData>
		<SimpleData name="extrude">0</SimpleData>
		<SimpleData name="visibility">-1</SimpleData>
	</SchemaData></ExtendedData>
      <Point><coordinates>29.2306857730462,-19.6442754542428</coordinates></Point>
  </Placemark>
  <Placemark>
	<name>Water_Tank_Joan-Mine_Dip_Mahwe</name>
	<ExtendedData><SchemaData schemaUrl="#SR_water_tanks">
		<SimpleData name="tessellate">-1</SimpleData>
		<SimpleData name="extrude">0</SimpleData>
		<SimpleData name="visibility">-1</SimpleData>
	</SchemaData></ExtendedData>
      <Point><coordinates>29.207093425457,-19.6447289138963</coordinates></Point>
  </Placemark>
  <Placemark>
	<name>Water_Tank_Pdk_19_SR</name>
	<ExtendedData><SchemaData schemaUrl="#SR_water_tanks">
		<SimpleData name="tessellate">-1</SimpleData>
		<SimpleData name="extrude">0</SimpleData>
		<SimpleData name="visibility">-1</SimpleData>
	</SchemaData></ExtendedData>
      <Point><coordinates>29.2479270709843,-19.6512024318081</coordinates></Point>
  </Placemark>
  <Placemark>
	<name>1</name>
	<ExtendedData><SchemaData schemaUrl="#SR_water_tanks">
		<SimpleData name="tessellate">-1</SimpleData>
		<SimpleData name="extrude">0</SimpleData>
		<SimpleData name="visibility">-1</SimpleData>
	</SchemaData></ExtendedData>
      <Point><coordinates>29.4022087601402,-19.7429150184149</coordinates></Point>
  </Placemark>
  <Placemark>
	<name>2</name>
	<ExtendedData><SchemaData schemaUrl="#SR_water_tanks">
		<SimpleData name="tessellate">-1</SimpleData>
		<SimpleData name="extrude">0</SimpleData>
		<SimpleData name="visibility">-1</SimpleData>
	</SchemaData></ExtendedData>
      <Point><coordinates>29.3907836948559,-19.7229153635272</coordinates></Point>
  </Placemark>
  <Placemark>
	<name>3</name>
	<ExtendedData><SchemaData schemaUrl="#SR_water_tanks">
		<SimpleData name="tessellate">-1</SimpleData>
		<SimpleData name="extrude">0</SimpleData>
		<SimpleData name="visibility">-1</SimpleData>
	</SchemaData></ExtendedData>
      <Point><coordinates>29.3611520777012,-19.7089361940535</coordinates></Point>
  </Placemark>
  <Placemark>
	<name>4</name>
	<ExtendedData><SchemaData schemaUrl="#SR_water_tanks">
		<SimpleData name="tessellate">-1</SimpleData>
		<SimpleData name="extrude">0</SimpleData>
		<SimpleData name="visibility">-1</SimpleData>
	</SchemaData></ExtendedData>
      <Point><coordinates>29.3487358692925,-19.6932195044722</coordinates></Point>
  </Placemark>
  <Placemark>
	<name>5</name>
	<ExtendedData><SchemaData schemaUrl="#SR_water_tanks">
		<SimpleData name="tessellate">-1</SimpleData>
		<SimpleData name="extrude">0</SimpleData>
		<SimpleData name="visibility">-1</SimpleData>
	</SchemaData></ExtendedData>
      <Point><coordinates>29.3248450457405,-19.7058936142382</coordinates></Point>
  </Placemark>
  <Placemark>
	<name>6</name>
	<ExtendedData><SchemaData schemaUrl="#SR_water_tanks">
		<SimpleData name="tessellate">-1</SimpleData>
		<SimpleData name="extrude">0</SimpleData>
		<SimpleData name="visibility">-1</SimpleData>
	</SchemaData></ExtendedData>
      <Point><coordinates>29.331758153666,-19.6908918777582</coordinates></Point>
  </Placemark>
  <Placemark>
	<name>7</name>
	<ExtendedData><SchemaData schemaUrl="#SR_water_tanks">
		<SimpleData name="tessellate">-1</SimpleData>
		<SimpleData name="extrude">0</SimpleData>
		<SimpleData name="visibility">-1</SimpleData>
	</SchemaData></ExtendedData>
      <Point><coordinates>29.3405457610035,-19.6859801828308</coordinates></Point>
  </Placemark>
  <Placemark>
	<name>7</name>
	<ExtendedData><SchemaData schemaUrl="#SR_water_tanks">
		<SimpleData name="tessellate">-1</SimpleData>
		<SimpleData name="extrude">0</SimpleData>
		<SimpleData name="visibility">-1</SimpleData>
	</SchemaData></ExtendedData>
      <Point><coordinates>29.3156317469121,-19.6709242137724</coordinates></Point>
  </Placemark>
  <Placemark>
	<name>8</name>
	<ExtendedData><SchemaData schemaUrl="#SR_water_tanks">
		<SimpleData name="tessellate">-1</SimpleData>
		<SimpleData name="extrude">0</SimpleData>
		<SimpleData name="visibility">-1</SimpleData>
	</SchemaData></ExtendedData>
      <Point><coordinates>29.2920744889456,-19.654149166222</coordinates></Point>
  </Placemark>
  <Placemark>
	<name>9</name>
	<ExtendedData><SchemaData schemaUrl="#SR_water_tanks">
		<SimpleData name="tessellate">-1</SimpleData>
		<SimpleData name="extrude">0</SimpleData>
		<SimpleData name="visibility">-1</SimpleData>
	</SchemaData></ExtendedData>
      <Point><coordinates>29.3253362739625,-19.6409308309902</coordinates></Point>
  </Placemark>
  <Placemark>
	<name>1</name>
	<ExtendedData><SchemaData schemaUrl="#SR_water_tanks">
		<SimpleData name="tessellate">-1</SimpleData>
		<SimpleData name="extrude">0</SimpleData>
		<SimpleData name="visibility">-1</SimpleData>
	</SchemaData></ExtendedData>
      <Point><coordinates>29.2750115490013,-19.6407239872603</coordinates></Point>
  </Placemark>
  <Placemark>
	<name>2</name>
	<ExtendedData><SchemaData schemaUrl="#SR_water_tanks">
		<SimpleData name="tessellate">-1</SimpleData>
		<SimpleData name="extrude">0</SimpleData>
		<SimpleData name="visibility">-1</SimpleData>
	</SchemaData></ExtendedData>
      <Point><coordinates>29.2015490921642,-19.6616467595158</coordinates></Point>
  </Placemark>
  <Placemark>
	<name>dry</name>
	<ExtendedData><SchemaData schemaUrl="#SR_water_tanks">
		<SimpleData name="tessellate">-1</SimpleData>
		<SimpleData name="extrude">0</SimpleData>
		<SimpleData name="visibility">-1</SimpleData>
	</SchemaData></ExtendedData>
      <Point><coordinates>29.1626365966227,-19.6519860059202</coordinates></Point>
  </Placemark>
  <Placemark>
	<name>1</name>
	<ExtendedData><SchemaData schemaUrl="#SR_water_tanks">
		<SimpleData name="tessellate">-1</SimpleData>
		<SimpleData name="extrude">0</SimpleData>
		<SimpleData name="visibility">-1</SimpleData>
	</SchemaData></ExtendedData>
      <Point><coordinates>29.1552752825239,-19.626364740887</coordinates></Point>
  </Placemark>
  <Placemark>
	<name>1</name>
	<ExtendedData><SchemaData schemaUrl="#SR_water_tanks">
		<SimpleData name="tessellate">-1</SimpleData>
		<SimpleData name="extrude">0</SimpleData>
		<SimpleData name="visibility">-1</SimpleData>
	</SchemaData></ExtendedData>
      <Point><coordinates>29.1474950911571,-19.6271874387582</coordinates></Point>
  </Placemark>
  <Placemark>
	<name>1</name>
	<ExtendedData><SchemaData schemaUrl="#SR_water_tanks">
		<SimpleData name="tessellate">-1</SimpleData>
		<SimpleData name="extrude">0</SimpleData>
		<SimpleData name="visibility">-1</SimpleData>
	</SchemaData></ExtendedData>
      <Point><coordinates>29.1811075836632,-19.5278037707982</coordinates></Point>
  </Placemark>
  <Placemark>
	<name>1</name>
	<ExtendedData><SchemaData schemaUrl="#SR_water_tanks">
		<SimpleData name="tessellate">-1</SimpleData>
		<SimpleData name="extrude">0</SimpleData>
		<SimpleData name="visibility">-1</SimpleData>
	</SchemaData></ExtendedData>
      <Point><coordinates>29.130015384689,-19.5080424333225</coordinates></Point>
  </Placemark>
  <Placemark>
	<name>1</name>
	<ExtendedData><SchemaData schemaUrl="#SR_water_tanks">
		<SimpleData name="tessellate">-1</SimpleData>
		<SimpleData name="extrude">0</SimpleData>
		<SimpleData name="visibility">-1</SimpleData>
	</SchemaData></ExtendedData>
      <Point><coordinates>29.1285717738952,-19.5081484142367</coordinates></Point>
  </Placemark>
  <Placemark>
	<name>1</name>
	<ExtendedData><SchemaData schemaUrl="#SR_water_tanks">
		<SimpleData name="tessellate">-1</SimpleData>
		<SimpleData name="extrude">0</SimpleData>
		<SimpleData name="visibility">-1</SimpleData>
	</SchemaData></ExtendedData>
      <Point><coordinates>29.1167093807203,-19.523237823488</coordinates></Point>
  </Placemark>
  <Placemark>
	<name>1</name>
	<ExtendedData><SchemaData schemaUrl="#SR_water_tanks">
		<SimpleData name="tessellate">-1</SimpleData>
		<SimpleData name="extrude">0</SimpleData>
		<SimpleData name="visibility">-1</SimpleData>
	</SchemaData></ExtendedData>
      <Point><coordinates>29.3808349154226,-19.7130955792835</coordinates></Point>
  </Placemark>
  <Placemark>
	<name>NsangoTank</name>
      <Point><coordinates>29.1082197485996,-19.667918438575</coordinates></Point>
  </Placemark>
  <Placemark>
	<name>Water Tank P4 SR</name>
	<ExtendedData><SchemaData schemaUrl="#SR_water_tanks">
		<SimpleData name="tessellate">-1</SimpleData>
		<SimpleData name="extrude">0</SimpleData>
		<SimpleData name="visibility">-1</SimpleData>
	</SchemaData></ExtendedData>
      <Point><coordinates>0,0</coordinates></Point>
  </Placemark>
  <Placemark>
	<name>Water Tank Pdk 4</name>
	<ExtendedData><SchemaData schemaUrl="#SR_water_tanks">
		<SimpleData name="tessellate">-1</SimpleData>
		<SimpleData name="extrude">0</SimpleData>
		<SimpleData name="visibility">-1</SimpleData>
	</SchemaData></ExtendedData>
      <Point><coordinates>0,0</coordinates></Point>
  </Placemark>
</Folder>
</Document></kml>
